CCSDS_OMM_VERS = 2.0
CREATION_DATE  = 
ORIGINATOR     = 

OBJECT_NAME    = ISS OBJECT XW
OBJECT_ID      = 1998-067XW
CENTER_NAME    = EARTH
REF_FRAME      = TEME
TIME_SYSTEM    = UTC
MEAN_ELEMENT_THEORY = SGP/SGP4

EPOCH          = 2026-03-04T14:32:16.951200
MEAN_MOTION    = 15.67030615
ECCENTRICITY   = .0004962
INCLINATION    = 51.6244
RA_OF_ASC_NODE = 91.4429
ARG_OF_PERICENTER = 57.7453
MEAN_ANOMALY   = 302.4024

EPHEMERIS_TYPE = 0
CLASSIFICATION_TYPE = U
NORAD_CAT_ID   = 66910
ELEMENT_SET_NO = 999
REV_AT_EPOCH   = 1438
BSTAR          = .13842E-2
MEAN_MOTION_DOT = .152805E-2
MEAN_MOTION_DDOT = 0

CCSDS_OMM_VERS = 2.0
CREATION_DATE  = 
ORIGINATOR     = 

OBJECT_NAME    = ISS OBJECT XX
OBJECT_ID      = 1998-067XX
CENTER_NAME    = EARTH
REF_FRAME      = TEME
TIME_SYSTEM    = UTC
MEAN_ELEMENT_THEORY = SGP/SGP4

EPOCH          = 2026-03-04T13:31:54.149952
MEAN_MOTION    = 15.72667197
ECCENTRICITY   = .0007046
INCLINATION    = 51.6211
RA_OF_ASC_NODE = 90.4017
ARG_OF_PERICENTER = 52.8119
MEAN_ANOMALY   = 307.3522

EPHEMERIS_TYPE = 0
CLASSIFICATION_TYPE = U
NORAD_CAT_ID   = 66911
ELEMENT_SET_NO = 999
REV_AT_EPOCH   = 1438
BSTAR          = .183E-2
MEAN_MOTION_DOT = .259038E-2
MEAN_MOTION_DDOT = 0

CCSDS_OMM_VERS = 2.0
CREATION_DATE  = 
ORIGINATOR     = 

OBJECT_NAME    = ISS OBJECT XY
OBJECT_ID      = 1998-067XY
CENTER_NAME    = EARTH
REF_FRAME      = TEME
TIME_SYSTEM    = UTC
MEAN_ELEMENT_THEORY = SGP/SGP4

EPOCH          = 2026-03-04T18:53:01.467456
MEAN_MOTION    = 15.62666927
ECCENTRICITY   = .0002996
INCLINATION    = 51.6265
RA_OF_ASC_NODE = 91.9178
ARG_OF_PERICENTER = 61.6316
MEAN_ANOMALY   = 298.4980

EPHEMERIS_TYPE = 0
CLASSIFICATION_TYPE = U
NORAD_CAT_ID   = 66912
ELEMENT_SET_NO = 999
REV_AT_EPOCH   = 1438
BSTAR          = .11105E-2
MEAN_MOTION_DOT = .102241E-2
MEAN_MOTION_DDOT = 0

CCSDS_OMM_VERS = 2.0
CREATION_DATE  = 
ORIGINATOR     = 

OBJECT_NAME    = ISS OBJECT XZ
OBJECT_ID      = 1998-067XZ
CENTER_NAME    = EARTH
REF_FRAME      = TEME
TIME_SYSTEM    = UTC
MEAN_ELEMENT_THEORY = SGP/SGP4

EPOCH          = 2026-03-04T07:37:01.846272
MEAN_MOTION    = 15.51337660
ECCENTRICITY   = .00094914
INCLINATION    = 51.6304
RA_OF_ASC_NODE = 98.5346
ARG_OF_PERICENTER = 167.7937
MEAN_ANOMALY   = 192.3284

EPHEMERIS_TYPE = 0
CLASSIFICATION_TYPE = U
NORAD_CAT_ID   = 67683
ELEMENT_SET_NO = 999
REV_AT_EPOCH   = 395
BSTAR          = .87420501E-3
MEAN_MOTION_DOT = .52289E-3
MEAN_MOTION_DDOT = 0

CCSDS_OMM_VERS = 2.0
CREATION_DATE  = 
ORIGINATOR     = 

OBJECT_NAME    = GXIBA-1
OBJECT_ID      = 1998-067YA
CENTER_NAME    = EARTH
REF_FRAME      = TEME
TIME_SYSTEM    = UTC
MEAN_ELEMENT_THEORY = SGP/SGP4

EPOCH          = 2026-03-04T08:41:37.516992
MEAN_MOTION    = 15.53373762
ECCENTRICITY   = .0010966
INCLINATION    = 51.6304
RA_OF_ASC_NODE = 98.0837
ARG_OF_PERICENTER = 158.3351
MEAN_ANOMALY   = 201.8106

EPHEMERIS_TYPE = 0
CLASSIFICATION_TYPE = U
NORAD_CAT_ID   = 67684
ELEMENT_SET_NO = 999
REV_AT_EPOCH   = 396
BSTAR          = .15927729E-2
MEAN_MOTION_DOT = .103687E-2
MEAN_MOTION_DDOT = 0

CCSDS_OMM_VERS = 2.0
CREATION_DATE  = 
ORIGINATOR     = 

OBJECT_NAME    = CORAL
OBJECT_ID      = 1998-067YB
CENTER_NAME    = EARTH
REF_FRAME      = TEME
TIME_SYSTEM    = UTC
MEAN_ELEMENT_THEORY = SGP/SGP4

EPOCH          = 2026-03-04T07:32:17.590272
MEAN_MOTION    = 15.51642058
ECCENTRICITY   = .00113986
INCLINATION    = 51.6305
RA_OF_ASC_NODE = 98.5128
ARG_OF_PERICENTER = 164.0725
MEAN_ANOMALY   = 196.0625

EPHEMERIS_TYPE = 0
CLASSIFICATION_TYPE = U
NORAD_CAT_ID   = 67685
ELEMENT_SET_NO = 999
REV_AT_EPOCH   = 395
BSTAR          = .95212079E-3
MEAN_MOTION_DOT = .57704E-3
MEAN_MOTION_DDOT = 0

CCSDS_OMM_VERS = 2.0
CREATION_DATE  = 
ORIGINATOR     = 

OBJECT_NAME    = ISS OBJECT YC
OBJECT_ID      = 1998-067YC
CENTER_NAME    = EARTH
REF_FRAME      = TEME
TIME_SYSTEM    = UTC
MEAN_ELEMENT_THEORY = SGP/SGP4

EPOCH          = 2026-03-04T07:26:44.045664
MEAN_MOTION    = 15.52065011
ECCENTRICITY   = .00077446
INCLINATION    = 51.6308
RA_OF_ASC_NODE = 98.4887
ARG_OF_PERICENTER = 132.0357
MEAN_ANOMALY   = 228.1293

EPHEMERIS_TYPE = 0
CLASSIFICATION_TYPE = U
NORAD_CAT_ID   = 67686
ELEMENT_SET_NO = 999
REV_AT_EPOCH   = 395
BSTAR          = .11372356E-2
MEAN_MOTION_DOT = .70087E-3
MEAN_MOTION_DDOT = 0

CCSDS_OMM_VERS = 2.0
CREATION_DATE  = 
ORIGINATOR     = 

OBJECT_NAME    = LEOPARD
OBJECT_ID      = 1998-067YD
CENTER_NAME    = EARTH
REF_FRAME      = TEME
TIME_SYSTEM    = UTC
MEAN_ELEMENT_THEORY = SGP/SGP4

EPOCH          = 2026-03-04T07:34:28.800768
MEAN_MOTION    = 15.51484974
ECCENTRICITY   = .00077812
INCLINATION    = 51.6306
RA_OF_ASC_NODE = 98.5236
ARG_OF_PERICENTER = 136.2386
MEAN_ANOMALY   = 223.9221

EPHEMERIS_TYPE = 0
CLASSIFICATION_TYPE = U
NORAD_CAT_ID   = 67687
ELEMENT_SET_NO = 999
REV_AT_EPOCH   = 387
BSTAR          = .94368384E-3
MEAN_MOTION_DOT = .56781E-3
MEAN_MOTION_DDOT = 0

CCSDS_OMM_VERS = 2.0
CREATION_DATE  = 
ORIGINATOR     = 

OBJECT_NAME    = ISS OBJECT YE
OBJECT_ID      = 1998-067YE
CENTER_NAME    = EARTH
REF_FRAME      = TEME
TIME_SYSTEM    = UTC
MEAN_ELEMENT_THEORY = SGP/SGP4

EPOCH          = 2026-03-04T12:07:23.752992
MEAN_MOTION    = 15.51890022
ECCENTRICITY   = .00077863
INCLINATION    = 51.6315
RA_OF_ASC_NODE = 97.5383
ARG_OF_PERICENTER = 134.7310
MEAN_ANOMALY   = 225.4314

EPHEMERIS_TYPE = 0
CLASSIFICATION_TYPE = U
NORAD_CAT_ID   = 67688
ELEMENT_SET_NO = 999
REV_AT_EPOCH   = 390
BSTAR          = .10599088E-2
MEAN_MOTION_DOT = .64836E-3
MEAN_MOTION_DDOT = 0

CCSDS_OMM_VERS = 2.0
CREATION_DATE  = 
ORIGINATOR     = 

OBJECT_NAME    = CREW DRAGON 12
OBJECT_ID      = 2026-031A
CENTER_NAME    = EARTH
REF_FRAME      = TEME
TIME_SYSTEM    = UTC
MEAN_ELEMENT_THEORY = SGP/SGP4

EPOCH          = 2026-03-04T20:48:04.408416
MEAN_MOTION    = 15.48447334
ECCENTRICITY   = .0008177
INCLINATION    = 51.6315
RA_OF_ASC_NODE = 96.2009
ARG_OF_PERICENTER = 157.5272
MEAN_ANOMALY   = 202.6076

EPHEMERIS_TYPE = 0
CLASSIFICATION_TYPE = U
NORAD_CAT_ID   = 67796
ELEMENT_SET_NO = 999
REV_AT_EPOCH   = 55549
BSTAR          = .17477E-3
MEAN_MOTION_DOT = .9014E-4
MEAN_MOTION_DDOT = 0

